STARLINK-34665          
1 65089U 25167M   26200.08661312  .00008995  00000+0  31532-3 0  9993
2 65089  53.1607 136.5931 0001168  95.0444 265.0690 15.30213990 53595
STARLINK-34673          
1 65090U 25167N   26200.80190929  .00006131  00000+0  21884-3 0  9995
2 65090  53.1596 133.2357 0001210  79.2725 280.8412 15.30215408 53700
STARLINK-34648          
1 65091U 25167P   26200.82151319  .00014653  00000+0  44408-3 0  9993
2 65091  53.1587 126.9630 0001575  88.0478 272.0704 15.34391142 53791
STARLINK-34640          
1 65092U 25167Q   26200.79768622  .00005185  00000+0  18707-3 0  9994
2 65092  53.1598 133.2098 0001564  70.3876 289.7293 15.30201243 53704
STARLINK-34266          
1 65093U 25167R   26200.81099110  .00013767  00000+0  41780-3 0  9999
2 65093  53.1587 126.8962 0001315  89.9861 270.1292 15.34403177 53791
STARLINK-34769          
1 65094U 25167S   26200.76479226  .00015698  00000+0  47460-3 0  9990
2 65094  53.1586 127.3193 0002020  91.0096 269.1138 15.34410640 53779
STARLINK-34768          
1 65095U 25167T   26200.82782566  .00006361  00000+0  19927-3 0  9996
2 65095  53.1594 126.9963 0001978  66.2213 293.8997 15.34398201 53792
STARLINK-34759          
1 65096U 25167U   26200.82571661  .00017890  00000+0  53932-3 0  9992
2 65096  53.1579 126.9881 0001196 109.1617 250.9515 15.34402086 53799
STARLINK-34741          
1 65097U 25167V   26200.82361663  .00008336  00000+0  25756-3 0  9990
2 65097  53.1582 126.9687 0001522 101.5223 258.5951 15.34399978 53793
STARLINK-34764          
1 65098U 25167W   26200.81626370  .00027556  00000+0  82303-3 0  9995
2 65098  53.1571 130.4866 0001425  93.3688 266.7477 15.34425404 53749
STARLINK-34815          
1 65099U 25167X   26200.80993745  .00006896  00000+0  21503-3 0  9997
2 65099  53.1574 130.4488 0001232  75.3453 284.7686 15.34399940 53746
STARLINK-34814          
1 65100U 25167Y   26200.82887509  .00015075  00000+0  45641-3 0  9990
2 65100  53.1578 130.5676 0001306  92.8676 267.2476 15.34400161 53747
STARLINK-34285          
1 65101U 25167Z   26200.19855299  .00007956  00000+0  24633-3 0  9999
2 65101  53.1595 133.7415 0001327  87.5643 272.5512 15.34401376 53649
STARLINK-34857          
1 65102U 25167AA  26200.18067143  .00008483  00000+0  26193-3 0  9991
2 65102  53.1582 130.0679 0001233  92.8685 267.2459 15.34398610 53680
STARLINK-34887          
1 65103U 25167AB  26200.53054442  .00006174  00000+0  19377-3 0  9990
2 65103  53.1591 132.2539 0000937 102.2115 257.8993 15.34389485 53693
STARLINK-34481          
1 65104U 25167AC  26200.81310764  .00013437  00000+0  40834-3 0  9996
2 65104  53.1573 126.9041 0001074  83.1003 277.0122 15.34382597 53783
STARLINK-34545          
1 65105U 25167AD  26200.16383994  .00009896  00000+0  30366-3 0  9993
2 65105  53.1583 129.9630 0001091  93.2501 266.8627 15.34396288 53694
STARLINK-34956          
1 65174U 25175A   26200.83335647  .02689341  00000+0  89185-1 0  9996
2 65174  97.2848  70.6525 0001150  91.1108 340.1327 15.27434440  5677
STARLINK-34949          
1 65175U 25175B   26200.83335647 -.00037338  00000+0 -11597-2 0  9993
2 65175  97.2845  70.7462 0001596  75.0797 223.2610 15.33451018  5779
STARLINK-34707          
1 65176U 25175C   26200.83335647  .02794699  00000+0  90084-1 0  9991
2 65176  97.2843  70.6686 0001018  85.4247  27.3645 15.28224225  5772
STARLINK-34967          
1 65177U 25175D   26200.83335647 -.00042476  00000+0 -13203-2 0  9990
2 65177  97.2847  70.7342 0001997  89.7627 178.5771 15.33454701  5670
STARLINK-34929          
1 65178U 25175E   26200.83335647 -.00031927  00000+0 -99013-3 0  9994
2 65178  97.2847  70.7655 0001749  80.7045 262.6306 15.33464812  5772
STARLINK-34932          
1 65179U 25175F   26200.83335647  .02903691  00000+0  93589-1 0  9991
2 65179  97.2844  70.7008 0001047  87.9644  97.9235 15.28700121  5722
STARLINK-34862          
1 65180U 25175G   26200.83335647 -.00059120  00000+0 -18427-2 0  9991
2 65180  97.2846  70.7282 0001194  79.1286 174.2484 15.33454309  5723
STARLINK-34942          
1 65181U 25175H   26200.83335647 -.00034125  00000+0 -10592-2 0  9995
2 65181  97.2847  70.7837 0001574  79.6957 308.6098 15.33453370  5779
STARLINK-34944          
1 65182U 25175J   26200.83335647  .01525699  00000+0  44598-1 0  9998
2 65182  97.2847  70.7242 0001499  92.7016 146.2739 15.32398949  5720
STARLINK-34939          
1 65183U 25175K   26200.83335647 -.00039592  00000+0 -12303-2 0  9992
2 65183  97.2847  70.7764 0000524 114.6332 258.7718 15.33449489  5771
STARLINK-34947          
1 65184U 25175L   26200.83335647  .02782614  00000+0  10574+0 0  9998
2 65184  97.2844  70.6707 0001200  87.9015  20.1126 15.23323888  5628
STARLINK-34945          
1 65185U 25175M   26200.83335647  .04794435  00000+0  18822+0 0  9999
2 65185  97.2893  70.6681 0000722  97.7209  34.8088 15.21321496  5783
STARLINK-34965          
1 65186U 25175N   26200.83335647 -.00059629  00000+0 -18599-2 0  9991
2 65186  97.2848  70.7741 0001740  76.2352 282.1073 15.33433288  5782
