OBJECT_NAME,OBJECT_ID,EPOCH,MEAN_MOTION,ECCENTRICITY,INCLINATION,RA_OF_ASC_NODE,ARG_OF_PERICENTER,MEAN_ANOMALY,EPHEMERIS_TYPE,CLASSIFICATION_TYPE,NORAD_CAT_ID,ELEMENT_SET_NO,REV_AT_EPOCH,BSTAR,MEAN_MOTION_DOT,MEAN_MOTION_DDOT
STARLINK-34665,2025-167M,2026-07-19T02:04:43.373568,15.30213990,.00011686,53.1607,136.5931,95.0444,265.0690,0,U,65089,999,5359,.31532442E-3,.8995E-4,0
STARLINK-34673,2025-167N,2026-07-19T19:14:44.962656,15.30215408,.000121,53.1596,133.2357,79.2725,280.8412,0,U,65090,999,5370,.21884E-3,.6131E-4,0
STARLINK-34648,2025-167P,2026-07-19T19:42:58.739616,15.34391142,.0001575,53.1587,126.9630,88.0478,272.0704,0,U,65091,999,5379,.44408E-3,.14653E-3,0
STARLINK-34640,2025-167Q,2026-07-19T19:08:40.089408,15.30201243,.0001564,53.1598,133.2098,70.3876,289.7293,0,U,65092,999,5370,.18707E-3,.5185E-4,0
STARLINK-34266,2025-167R,2026-07-19T19:27:49.631040,15.34403177,.0001315,53.1587,126.8962,89.9861,270.1292,0,U,65093,999,5379,.4178E-3,.13767E-3,0
STARLINK-34769,2025-167S,2026-07-19T18:21:18.051264,15.34410640,.000202,53.1586,127.3193,91.0096,269.1138,0,U,65094,999,5377,.4746E-3,.15698E-3,0
STARLINK-34768,2025-167T,2026-07-19T19:52:04.137024,15.34398201,.0001978,53.1594,126.9963,66.2213,293.8997,0,U,65095,999,5379,.19927E-3,.6361E-4,0
STARLINK-34759,2025-167U,2026-07-19T19:49:01.915104,15.34402086,.0001196,53.1579,126.9881,109.1617,250.9515,0,U,65096,999,5379,.53932E-3,.1789E-3,0
STARLINK-34741,2025-167V,2026-07-19T19:46:00.476832,15.34399978,.0001522,53.1582,126.9687,101.5223,258.5951,0,U,65097,999,5379,.25756E-3,.8336E-4,0
STARLINK-34764,2025-167W,2026-07-19T19:35:25.183680,15.34425404,.0001425,53.1571,130.4866,93.3688,266.7477,0,U,65098,999,5374,.82303E-3,.27556E-3,0
STARLINK-34815,2025-167X,2026-07-19T19:26:18.595680,15.34399940,.0001232,53.1574,130.4488,75.3453,284.7686,0,U,65099,999,5374,.21503E-3,.6896E-4,0
STARLINK-34814,2025-167Y,2026-07-19T19:53:34.807776,15.34400161,.0001306,53.1578,130.5676,92.8676,267.2476,0,U,65100,999,5374,.45641E-3,.15075E-3,0
STARLINK-34285,2025-167Z,2026-07-19T04:45:54.978336,15.34401376,.00013272,53.1595,133.7415,87.5643,272.5512,0,U,65101,999,5364,.24632963E-3,.7956E-4,0
STARLINK-34857,2025-167AA,2026-07-19T04:20:10.011552,15.34398610,.00012339,53.1582,130.0679,92.8685,267.2459,0,U,65102,999,5368,.26193236E-3,.8483E-4,0
STARLINK-34887,2025-167AB,2026-07-19T12:43:59.037888,15.34389485,.0000937,53.1591,132.2539,102.2115,257.8993,0,U,65103,999,5369,.19377E-3,.6174E-4,0
STARLINK-34481,2025-167AC,2026-07-19T19:30:52.500096,15.34382597,.0001074,53.1573,126.9041,83.1003,277.0122,0,U,65104,999,5378,.40834E-3,.13437E-3,0
STARLINK-34545,2025-167AD,2026-07-19T03:55:55.770816,15.34396288,.00010912,53.1583,129.9630,93.2501,266.8627,0,U,65105,999,5369,.3036566E-3,.9896E-4,0
STARLINK-34956,2025-175A,2026-07-19T20:00:01.999008,15.27434440,.000115,97.2848,70.6525,91.1108,340.1327,0,U,65174,999,567,.89185E-1,.2689341E-1,0
STARLINK-34949,2025-175B,2026-07-19T20:00:01.999008,15.33451018,.0001596,97.2845,70.7462,75.0797,223.2610,0,U,65175,999,577,-.11597E-2,-.37338E-3,0
STARLINK-34707,2025-175C,2026-07-19T20:00:01.999008,15.28224225,.0001018,97.2843,70.6686,85.4247,27.3645,0,U,65176,999,577,.90084E-1,.2794699E-1,0
STARLINK-34967,2025-175D,2026-07-19T20:00:01.999008,15.33454701,.0001997,97.2847,70.7342,89.7627,178.5771,0,U,65177,999,567,-.13203E-2,-.42476E-3,0
STARLINK-34929,2025-175E,2026-07-19T20:00:01.999008,15.33464812,.0001749,97.2847,70.7655,80.7045,262.6306,0,U,65178,999,577,-.99013E-3,-.31927E-3,0
STARLINK-34932,2025-175F,2026-07-19T20:00:01.999008,15.28700121,.0001047,97.2844,70.7008,87.9644,97.9235,0,U,65179,999,572,.93589E-1,.2903691E-1,0
STARLINK-34862,2025-175G,2026-07-19T20:00:01.999008,15.33454309,.0001194,97.2846,70.7282,79.1286,174.2484,0,U,65180,999,572,-.18427E-2,-.5912E-3,0
STARLINK-34942,2025-175H,2026-07-19T20:00:01.999008,15.33453370,.0001574,97.2847,70.7837,79.6957,308.6098,0,U,65181,999,577,-.10592E-2,-.34125E-3,0
STARLINK-34944,2025-175J,2026-07-19T20:00:01.999008,15.32398949,.0001499,97.2847,70.7242,92.7016,146.2739,0,U,65182,999,572,.44598E-1,.1525699E-1,0
STARLINK-34939,2025-175K,2026-07-19T20:00:01.999008,15.33449489,.0000524,97.2847,70.7764,114.6332,258.7718,0,U,65183,999,577,-.12303E-2,-.39592E-3,0
STARLINK-34947,2025-175L,2026-07-19T20:00:01.999008,15.23323888,.00012,97.2844,70.6707,87.9015,20.1126,0,U,65184,999,562,.10574E+0,.2782614E-1,0
STARLINK-34945,2025-175M,2026-07-19T20:00:01.999008,15.21321496,.0000722,97.2893,70.6681,97.7209,34.8088,0,U,65185,999,578,.18822E+0,.4794435E-1,0
STARLINK-34965,2025-175N,2026-07-19T20:00:01.999008,15.33433288,.000174,97.2848,70.7741,76.2352,282.1073,0,U,65186,999,578,-.18599E-2,-.59629E-3,0
